[{"OBJECT_NAME":"KAZEOSAT 1","OBJECT_ID":"2014-024A","EPOCH":"2026-03-09T22:32:10.650624","MEAN_MOTION":14.4203561,"ECCENTRICITY":0.0001038,"INCLINATION":98.3278,"RA_OF_ASC_NODE":143.8269,"ARG_OF_PERICENTER":83.2576,"MEAN_ANOMALY":276.8732,"EPHEMERIS_TYPE":0,"CLASSIFICATION_TYPE":"U","NORAD_CAT_ID":39731,"ELEMENT_SET_NO":999,"REV_AT_EPOCH":62425,"BSTAR":8.1032563e-5,"MEAN_MOTION_DOT":2.23e-6,"MEAN_MOTION_DDOT":0},{"OBJECT_NAME":"ORBCOMM FM03","OBJECT_ID":"1998-007B","EPOCH":"2026-03-09T14:31:08.283072","MEAN_MOTION":14.35302941,"ECCENTRICITY":0.0043027,"INCLINATION":107.9629,"RA_OF_ASC_NODE":321.1328,"ARG_OF_PERICENTER":145.7145,"MEAN_ANOMALY":214.6785,"EPHEMERIS_TYPE":0,"CLASSIFICATION_TYPE":"U","NORAD_CAT_ID":25158,"ELEMENT_SET_NO":999,"REV_AT_EPOCH":46211,"BSTAR":0.00048033,"MEAN_MOTION_DOT":1.26e-5,"MEAN_MOTION_DDOT":0}]
